{ "40961": {"name": "JILIN-1", "norad_id": "40961", "line1": "1 40961U 15057D   26187.30560497  .00000875  00000+0  12722-3 0  9992", "line2": "2 40961  97.6513 185.7236 0016399 195.9625 164.1072 14.78192099578438", "country": "China", "operator": "Chang Guang Satellite Techno", "sensor": "Optical", "resolution_m": 0.72, "notes": "book:Jilin-1", "fetched_at": 1783341673.1999154, "stale": false}, "41914": {"name": "JILIN-1 03", "norad_id": "41914", "line1": "1 41914U 17002B   26187.30165836  .00012834  00000+0  30190-3 0  9998", "line2": "2 41914  97.1952 194.1218 0008002 102.8859 257.3283 15.42069889524804", "country": "China", "operator": "Chang Guang Satellite Techno", "sensor": "Optical", "resolution_m": 1.13, "notes": "book:Jiling-1-03", "fetched_at": 1783341673.5330741, "stale": false}, "43022": {"name": "JILIN-1 04", "norad_id": "43022", "line1": "1 43022U 17074A   26187.28606039  .00013760  00000+0  31432-3 0  9990", "line2": "2 43022  97.4868 297.4154 0005133 123.2501 236.9239 15.42966025477218", "country": "China", "operator": "Chang Guang Satellite Techno", "sensor": "Optical", "resolution_m": 1.1, "notes": "book:Jiling-1-04", "fetched_at": 1783341673.880006, "stale": false}, "43023": {"name": "JILIN-1 05", "norad_id": "43023", "line1": "1 43023U 17074B   26187.29890508  .00008534  00000+0  26019-3 0  9996", "line2": "2 43023  97.4872 293.7163 0005945 149.7630 210.3956 15.34188769476932", "country": "China", "operator": "Chang Guang Satellite Techno", "sensor": "Optical", "resolution_m": 1.1, "notes": "book:Jiling-1-05", "fetched_at": 1783341674.2781878, "stale": false}, "43024": {"name": "JILIN-1 06", "norad_id": "43024", "line1": "1 43024U 17074C   26187.27320531  .00006076  00000+0  18747-3 0  9997", "line2": "2 43024  97.4799 290.6748 0007398 161.5541 198.5971 15.33928421476764", "country": "China", "operator": "Chang Guang Satellite Techno", "sensor": "Optical", "resolution_m": 1.1, "notes": "book:Jiling-1-06", "fetched_at": 1783341674.7951646, "stale": false}, "43159": {"name": "JILIN-1 07", "norad_id": "43159", "line1": "1 43159U 18008E   26187.26004946  .00009186  00000+0  27201-3 0  9992", "line2": "2 43159  97.1767 206.6827 0007765   3.6405 356.4894 15.35060780467927", "country": "China", "operator": "Chang Guang Satellite Techno", "sensor": "Optical", "resolution_m": 1.0, "notes": "book:Jiling-1-07", "fetched_at": 1783341675.1476195, "stale": false}, "43160": {"name": "JILIN-1 08", "norad_id": "43160", "line1": "1 43160U 18008F   26187.27346345  .00006689  00000+0  20595-3 0  9991", "line2": "2 43160  97.1803 205.9911 0006417  24.6459 335.5090 15.33939943467875", "country": "China", "operator": "Chang Guang Satellite Techno", "sensor": "Optical", "resolution_m": 1.0, "notes": "book:Jiling-1-08", "fetched_at": 1783341675.492453, "stale": false}, "43943": {"name": "JILIN-1 09", "norad_id": "43943", "line1": "1 43943U 19005B   26187.26368907  .00005069  00000+0  23382-3 0  9993", "line2": "2 43943  97.4740 282.0656 0003049  55.8232 304.3292 15.20690310412047", "country": "China", "operator": "Chang Guang Satellite Techno", "sensor": "Optical", "resolution_m": 1.0, "notes": "book:JILIN-1 SPECTRUM-01,02", "fetched_at": 1783341741.6151009, "stale": false}, "43946": {"name": "JILIN-1 10", "norad_id": "43946", "line1": "1 43946U 19005E   26187.27610961  .00006324  00000+0  24907-3 0  9996", "line2": "2 43946  97.4789 286.0836 0007687 200.8398 159.2528 15.25940138412224", "country": "China", "operator": "Chang Guang Satellite Techno", "sensor": "Optical", "resolution_m": 1.0, "notes": "book:JILIN-1 SPECTRUM-01,02", "fetched_at": 1783341741.951897, "stale": false}}