{"fetched_at":"2026-07-06T18:35:39.768Z","source":"https://celestrak.org/NORAD/elements/gp.php?NAME=JILIN&FORMAT=JSON","constellation":"jilin-1-early","records":[{"OBJECT_NAME":"JILIN-1","OBJECT_ID":"2015-057D","EPOCH":"2026-07-06T07:20:04.269408","CLASSIFICATION_TYPE":"U","MEAN_MOTION":14.78192099,"ECCENTRICITY":0.0016399,"INCLINATION":97.6513,"RA_OF_ASC_NODE":185.7236,"ARG_OF_PERICENTER":195.9625,"MEAN_ANOMALY":164.1072,"EPHEMERIS_TYPE":0,"NORAD_CAT_ID":40961,"ELEMENT_SET_NO":999,"REV_AT_EPOCH":57843,"BSTAR":0.00012722301,"MEAN_MOTION_DOT":0.00000875,"MEAN_MOTION_DDOT":0},{"OBJECT_NAME":"JILIN-1 03","OBJECT_ID":"2017-002B","EPOCH":"2026-07-06T07:14:23.282304","CLASSIFICATION_TYPE":"U","MEAN_MOTION":15.42069889,"ECCENTRICITY":0.00080026,"INCLINATION":97.1952,"RA_OF_ASC_NODE":194.1218,"ARG_OF_PERICENTER":102.8859,"MEAN_ANOMALY":257.3283,"EPHEMERIS_TYPE":0,"NORAD_CAT_ID":41914,"ELEMENT_SET_NO":999,"REV_AT_EPOCH":52480,"BSTAR":0.0003018997,"MEAN_MOTION_DOT":0.00012834,"MEAN_MOTION_DDOT":0},{"OBJECT_NAME":"JILIN-1 04","OBJECT_ID":"2017-074A","EPOCH":"2026-07-06T06:51:55.617696","CLASSIFICATION_TYPE":"U","MEAN_MOTION":15.42966025,"ECCENTRICITY":0.00051338,"INCLINATION":97.4868,"RA_OF_ASC_NODE":297.4154,"ARG_OF_PERICENTER":123.2501,"MEAN_ANOMALY":236.9239,"EPHEMERIS_TYPE":0,"NORAD_CAT_ID":43022,"ELEMENT_SET_NO":999,"REV_AT_EPOCH":47721,"BSTAR":0.00031432321,"MEAN_MOTION_DOT":0.0001376,"MEAN_MOTION_DDOT":0},{"OBJECT_NAME":"JILIN-1 05","OBJECT_ID":"2017-074B","EPOCH":"2026-07-06T07:10:25.398912","CLASSIFICATION_TYPE":"U","MEAN_MOTION":15.34188769,"ECCENTRICITY":0.00059454,"INCLINATION":97.4872,"RA_OF_ASC_NODE":293.7163,"ARG_OF_PERICENTER":149.763,"MEAN_ANOMALY":210.3956,"EPHEMERIS_TYPE":0,"NORAD_CAT_ID":43023,"ELEMENT_SET_NO":999,"REV_AT_EPOCH":47693,"BSTAR":0.00026019069,"MEAN_MOTION_DOT":0.00008534,"MEAN_MOTION_DDOT":0},{"OBJECT_NAME":"JILIN-1 06","OBJECT_ID":"2017-074C","EPOCH":"2026-07-06T06:33:24.938784","CLASSIFICATION_TYPE":"U","MEAN_MOTION":15.33928421,"ECCENTRICITY":0.00073987,"INCLINATION":97.4799,"RA_OF_ASC_NODE":290.6748,"ARG_OF_PERICENTER":161.5541,"MEAN_ANOMALY":198.5971,"EPHEMERIS_TYPE":0,"NORAD_CAT_ID":43024,"ELEMENT_SET_NO":999,"REV_AT_EPOCH":47676,"BSTAR":0.00018747038,"MEAN_MOTION_DOT":0.00006076,"MEAN_MOTION_DDOT":0},{"OBJECT_NAME":"JILIN-1 07","OBJECT_ID":"2018-008E","EPOCH":"2026-07-06T06:14:28.273344","CLASSIFICATION_TYPE":"U","MEAN_MOTION":15.3506078,"ECCENTRICITY":0.00077651,"INCLINATION":97.1767,"RA_OF_ASC_NODE":206.6827,"ARG_OF_PERICENTER":3.6405,"MEAN_ANOMALY":356.4894,"EPHEMERIS_TYPE":0,"NORAD_CAT_ID":43159,"ELEMENT_SET_NO":999,"REV_AT_EPOCH":46792,"BSTAR":0.00027200929,"MEAN_MOTION_DOT":0.00009186,"MEAN_MOTION_DDOT":0},{"OBJECT_NAME":"JILIN-1 08","OBJECT_ID":"2018-008F","EPOCH":"2026-07-06T06:33:47.242080","CLASSIFICATION_TYPE":"U","MEAN_MOTION":15.33939943,"ECCENTRICITY":0.00064178,"INCLINATION":97.1803,"RA_OF_ASC_NODE":205.9911,"ARG_OF_PERICENTER":24.6459,"MEAN_ANOMALY":335.509,"EPHEMERIS_TYPE":0,"NORAD_CAT_ID":43160,"ELEMENT_SET_NO":999,"REV_AT_EPOCH":46787,"BSTAR":0.00020595413,"MEAN_MOTION_DOT":0.00006689,"MEAN_MOTION_DDOT":0},{"OBJECT_NAME":"JILIN-1 09","OBJECT_ID":"2019-005B","EPOCH":"2026-07-06T06:19:42.735648","CLASSIFICATION_TYPE":"U","MEAN_MOTION":15.2069031,"ECCENTRICITY":0.00030494,"INCLINATION":97.474,"RA_OF_ASC_NODE":282.0656,"ARG_OF_PERICENTER":55.8232,"MEAN_ANOMALY":304.3292,"EPHEMERIS_TYPE":0,"NORAD_CAT_ID":43943,"ELEMENT_SET_NO":999,"REV_AT_EPOCH":41204,"BSTAR":0.00023382003,"MEAN_MOTION_DOT":0.00005069,"MEAN_MOTION_DDOT":0},{"OBJECT_NAME":"JILIN-1 10","OBJECT_ID":"2019-005E","EPOCH":"2026-07-06T06:37:35.870304","CLASSIFICATION_TYPE":"U","MEAN_MOTION":15.25940138,"ECCENTRICITY":0.00076878,"INCLINATION":97.4789,"RA_OF_ASC_NODE":286.0836,"ARG_OF_PERICENTER":200.8398,"MEAN_ANOMALY":159.2528,"EPHEMERIS_TYPE":0,"NORAD_CAT_ID":43946,"ELEMENT_SET_NO":999,"REV_AT_EPOCH":41222,"BSTAR":0.00024907069,"MEAN_MOTION_DOT":0.00006324,"MEAN_MOTION_DDOT":0}]}
